CCSDS_OMM_VERS = 2.0
CREATION_DATE  = 
ORIGINATOR     = 

OBJECT_NAME    = CZ-2C R/B
OBJECT_ID      = 2022-132E
CENTER_NAME    = EARTH
REF_FRAME      = TEME
TIME_SYSTEM    = UTC
MEAN_ELEMENT_THEORY = SGP/SGP4

EPOCH          = 2026-02-08T00:03:11.622240
MEAN_MOTION    = 15.59283759
ECCENTRICITY   = .0018158
INCLINATION    = 97.2964
RA_OF_ASC_NODE = 41.4823
ARG_OF_PERICENTER = 192.1721
MEAN_ANOMALY   = 167.9100

EPHEMERIS_TYPE = 0
CLASSIFICATION_TYPE = U
NORAD_CAT_ID   = 54039
ELEMENT_SET_NO = 999
REV_AT_EPOCH   = 18574
BSTAR          = .50959E-3
MEAN_MOTION_DOT = .40392E-3
MEAN_MOTION_DDOT = 0

CCSDS_OMM_VERS = 2.0
CREATION_DATE  = 
ORIGINATOR     = 

OBJECT_NAME    = GSLV R/B
OBJECT_ID      = 2022-138AN
CENTER_NAME    = EARTH
REF_FRAME      = TEME
TIME_SYSTEM    = UTC
MEAN_ELEMENT_THEORY = SGP/SGP4

EPOCH          = 2026-02-07T21:37:12.954432
MEAN_MOTION    = 14.96544176
ECCENTRICITY   = .0019333
INCLINATION    = 87.3862
RA_OF_ASC_NODE = 176.3301
ARG_OF_PERICENTER = 258.7387
MEAN_ANOMALY   = 101.1672

EPHEMERIS_TYPE = 0
CLASSIFICATION_TYPE = U
NORAD_CAT_ID   = 54149
ELEMENT_SET_NO = 999
REV_AT_EPOCH   = 17947
BSTAR          = .33961E-3
MEAN_MOTION_DOT = .3902E-4
MEAN_MOTION_DDOT = 0

CCSDS_OMM_VERS = 2.0
CREATION_DATE  = 
ORIGINATOR     = 

OBJECT_NAME    = XRISM
OBJECT_ID      = 2023-137A
CENTER_NAME    = EARTH
REF_FRAME      = TEME
TIME_SYSTEM    = UTC
MEAN_ELEMENT_THEORY = SGP/SGP4

EPOCH          = 2026-02-07T15:44:31.833600
MEAN_MOTION    = 15.11125713
ECCENTRICITY   = .000806
INCLINATION    = 31.0017
RA_OF_ASC_NODE = 117.8608
ARG_OF_PERICENTER = 99.0719
MEAN_ANOMALY   = 261.0832

EPHEMERIS_TYPE = 0
CLASSIFICATION_TYPE = U
NORAD_CAT_ID   = 57800
ELEMENT_SET_NO = 999
REV_AT_EPOCH   = 13324
BSTAR          = .46756499E-3
MEAN_MOTION_DOT = .8135E-4
MEAN_MOTION_DDOT = 0

CCSDS_OMM_VERS = 2.0
CREATION_DATE  = 
ORIGINATOR     = 

OBJECT_NAME    = ACS3
OBJECT_ID      = 2024-077B
CENTER_NAME    = EARTH
REF_FRAME      = TEME
TIME_SYSTEM    = UTC
MEAN_ELEMENT_THEORY = SGP/SGP4

EPOCH          = 2026-02-07T21:21:49.175136
MEAN_MOTION    = 13.88366305
ECCENTRICITY   = .0045468
INCLINATION    = 97.2230
RA_OF_ASC_NODE = 346.7011
ARG_OF_PERICENTER = 170.1896
MEAN_ANOMALY   = 190.0165

EPHEMERIS_TYPE = 0
CLASSIFICATION_TYPE = U
NORAD_CAT_ID   = 59588
ELEMENT_SET_NO = 999
REV_AT_EPOCH   = 9006
BSTAR          = .14733E-1
MEAN_MOTION_DOT = .1781E-3
MEAN_MOTION_DDOT = 0

CCSDS_OMM_VERS = 2.0
CREATION_DATE  = 
ORIGINATOR     = 

OBJECT_NAME    = SZ-21 MODULE
OBJECT_ID      = 2025-246C
CENTER_NAME    = EARTH
REF_FRAME      = TEME
TIME_SYSTEM    = UTC
MEAN_ELEMENT_THEORY = SGP/SGP4

EPOCH          = 2026-02-07T23:58:32.582208
MEAN_MOTION    = 15.66300370
ECCENTRICITY   = .0002896
INCLINATION    = 41.4767
RA_OF_ASC_NODE = 25.8100
ARG_OF_PERICENTER = 282.8703
MEAN_ANOMALY   = 77.1814

EPHEMERIS_TYPE = 0
CLASSIFICATION_TYPE = U
NORAD_CAT_ID   = 66515
ELEMENT_SET_NO = 999
REV_AT_EPOCH   = 1341
BSTAR          = .33069E-3
MEAN_MOTION_DOT = .35031E-3
MEAN_MOTION_DDOT = 0

